{
    "links": {
        "self": "http://www.neowsapp.com/rest/v1/neo/3836109?api_key=iIulBulltgU6a56xZRHN4H3l9WmuAYTsLGpBGhQ2"
    },
    "id": "3836109",
    "neo_reference_id": "3836109",
    "name": "(2018 VZ4)",
    "designation": "2018 VZ4",
    "nasa_jpl_url": "http://ssd.jpl.nasa.gov/sbdb.cgi?sstr=3836109",
    "absolute_magnitude_h": 26.9,
    "estimated_diameter": {
        "kilometers": {
            "estimated_diameter_min": 0.0110803882,
            "estimated_diameter_max": 0.0247765013
        },
        "meters": {
            "estimated_diameter_min": 11.0803882126,
            "estimated_diameter_max": 24.7765012606
        },
        "miles": {
            "estimated_diameter_min": 0.0068850319,
            "estimated_diameter_max": 0.0153953994
        },
        "feet": {
            "estimated_diameter_min": 36.3529808636,
            "estimated_diameter_max": 81.2877363957
        }
    },
    "is_potentially_hazardous_asteroid": false,
    "close_approach_data": [
        {
            "close_approach_date": "2018-11-02",
            "close_approach_date_full": "2018-Nov-02 01:25",
            "epoch_date_close_approach": 1541121900000,
            "relative_velocity": {
                "kilometers_per_second": "6.936128473",
                "kilometers_per_hour": "24970.0625027737",
                "miles_per_hour": "15515.4257812374"
            },
            "miss_distance": {
                "astronomical": "0.0180725293",
                "lunar": "7.0302138977",
                "kilometers": "2703611.888792591",
                "miles": "1679946.5275401158"
            },
            "orbiting_body": "Earth"
        }
    ],
    "orbital_data": {
        "orbit_id": "2",
        "orbit_determination_date": "2019-01-16 06:48:47",
        "first_observation_date": "2018-11-06",
        "last_observation_date": "2018-11-17",
        "data_arc_in_days": 11,
        "observations_used": 23,
        "orbit_uncertainty": "7",
        "minimum_orbit_intersection": ".0178745",
        "jupiter_tisserand_invariant": "4.062",
        "epoch_osculation": "2459000.5",
        "eccentricity": ".4308968906285193",
        "semi_major_axis": "1.720308124393205",
        "inclination": "1.80212472143741",
        "ascending_node_longitude": "71.61695846789425",
        "orbital_period": "824.1528929107524",
        "perihelion_distance": ".9790327026691927",
        "perihelion_argument": "306.5972198162593",
        "aphelion_distance": "2.461583546117216",
        "perihelion_time": "2459231.131086798034",
        "mean_anomaly": "259.257538302079",
        "mean_motion": ".4368121535417391",
        "equinox": "J2000",
        "orbit_class": {
            "orbit_class_type": "APO",
            "orbit_class_description": "Near-Earth asteroid orbits which cross the Earth’s orbit similar to that of 1862 Apollo",
            "orbit_class_range": "a (semi-major axis) > 1.0 AU; q (perihelion) < 1.017 AU"
        }
    },
    "is_sentry_object": false
}